{
    "links": {
        "self": "http://www.neowsapp.com/rest/v1/neo/3799278?api_key=iIulBulltgU6a56xZRHN4H3l9WmuAYTsLGpBGhQ2"
    },
    "id": "3799278",
    "neo_reference_id": "3799278",
    "name": "(2018 CD2)",
    "designation": "2018 CD2",
    "nasa_jpl_url": "http://ssd.jpl.nasa.gov/sbdb.cgi?sstr=3799278",
    "absolute_magnitude_h": 24.7,
    "estimated_diameter": {
        "kilometers": {
            "estimated_diameter_min": 0.0305179233,
            "estimated_diameter_max": 0.0682401509
        },
        "meters": {
            "estimated_diameter_min": 30.5179232594,
            "estimated_diameter_max": 68.2401509401
        },
        "miles": {
            "estimated_diameter_min": 0.0189629525,
            "estimated_diameter_max": 0.0424024508
        },
        "feet": {
            "estimated_diameter_min": 100.1244233463,
            "estimated_diameter_max": 223.8850168104
        }
    },
    "is_potentially_hazardous_asteroid": false,
    "close_approach_data": [
        {
            "close_approach_date": "2018-02-02",
            "close_approach_date_full": "2018-Feb-02 01:16",
            "epoch_date_close_approach": 1517534160000,
            "relative_velocity": {
                "kilometers_per_second": "16.9404117496",
                "kilometers_per_hour": "60985.4822986471",
                "miles_per_hour": "37894.0070427344"
            },
            "miss_distance": {
                "astronomical": "0.0579659025",
                "lunar": "22.5487360725",
                "kilometers": "8671575.546627675",
                "miles": "5388267.187404915"
            },
            "orbiting_body": "Earth"
        }
    ],
    "orbital_data": {
        "orbit_id": "1",
        "orbit_determination_date": "2018-02-10 13:42:03",
        "first_observation_date": "2018-02-07",
        "last_observation_date": "2018-02-10",
        "data_arc_in_days": 3,
        "observations_used": 13,
        "orbit_uncertainty": "9",
        "minimum_orbit_intersection": ".0361171",
        "jupiter_tisserand_invariant": "3.256",
        "epoch_osculation": "2458157.5",
        "eccentricity": ".6732991163693282",
        "semi_major_axis": "2.275554203486161",
        "inclination": "7.480071301245101",
        "ascending_node_longitude": "339.0948863405606",
        "orbital_period": "1253.80270971103",
        "perihelion_distance": ".7434255690284184",
        "perihelion_argument": "85.73816471943502",
        "aphelion_distance": "3.807682837943903",
        "perihelion_time": "2458109.242640966786",
        "mean_anomaly": "13.85596722466886",
        "mean_motion": ".2871265129766476",
        "equinox": "J2000",
        "orbit_class": {
            "orbit_class_type": "APO",
            "orbit_class_description": "Near-Earth asteroid orbits which cross the Earth’s orbit similar to that of 1862 Apollo",
            "orbit_class_range": "a (semi-major axis) > 1.0 AU; q (perihelion) < 1.017 AU"
        }
    },
    "is_sentry_object": false
}